CCSDS_OMM_VERS = 2.0
CREATION_DATE  = 
ORIGINATOR     = 

OBJECT_NAME    = SDA_1673
OBJECT_ID      = 2025-230K
CENTER_NAME    = EARTH
REF_FRAME      = TEME
TIME_SYSTEM    = UTC
MEAN_ELEMENT_THEORY = SGP/SGP4

EPOCH          = 2025-11-12T19:23:25.907136
MEAN_MOTION    = 13.85557499
ECCENTRICITY   = .0005084
INCLINATION    = 81.3034
RA_OF_ASC_NODE = 52.3431
ARG_OF_PERICENTER = 94.4655
MEAN_ANOMALY   = 265.7083

EPHEMERIS_TYPE = 0
CLASSIFICATION_TYPE = U
NORAD_CAT_ID   = 65983
ELEMENT_SET_NO = 999
REV_AT_EPOCH   = 386
BSTAR          = .32847E-3
MEAN_MOTION_DOT = .387E-5
MEAN_MOTION_DDOT = 0

CCSDS_OMM_VERS = 2.0
CREATION_DATE  = 
ORIGINATOR     = 

OBJECT_NAME    = SDA_1674
OBJECT_ID      = 2025-230L
CENTER_NAME    = EARTH
REF_FRAME      = TEME
TIME_SYSTEM    = UTC
MEAN_ELEMENT_THEORY = SGP/SGP4

EPOCH          = 2025-11-12T19:27:59.604192
MEAN_MOTION    = 13.85398787
ECCENTRICITY   = .0004889
INCLINATION    = 81.3025
RA_OF_ASC_NODE = 52.3415
ARG_OF_PERICENTER = 86.0860
MEAN_ANOMALY   = 274.0856

EPHEMERIS_TYPE = 0
CLASSIFICATION_TYPE = U
NORAD_CAT_ID   = 65984
ELEMENT_SET_NO = 999
REV_AT_EPOCH   = 386
BSTAR          = .30945E-3
MEAN_MOTION_DOT = .364E-5
MEAN_MOTION_DDOT = 0

CCSDS_OMM_VERS = 2.0
CREATION_DATE  = 
ORIGINATOR     = 

OBJECT_NAME    = SDA_1675
OBJECT_ID      = 2025-230M
CENTER_NAME    = EARTH
REF_FRAME      = TEME
TIME_SYSTEM    = UTC
MEAN_ELEMENT_THEORY = SGP/SGP4

EPOCH          = 2025-11-12T19:47:22.557696
MEAN_MOTION    = 13.84727408
ECCENTRICITY   = .0003202
INCLINATION    = 81.3002
RA_OF_ASC_NODE = 52.3536
ARG_OF_PERICENTER = 47.2600
MEAN_ANOMALY   = 312.8825

EPHEMERIS_TYPE = 0
CLASSIFICATION_TYPE = U
NORAD_CAT_ID   = 65985
ELEMENT_SET_NO = 999
REV_AT_EPOCH   = 386
BSTAR          = .29881E-3
MEAN_MOTION_DOT = .348E-5
MEAN_MOTION_DDOT = 0

CCSDS_OMM_VERS = 2.0
CREATION_DATE  = 
ORIGINATOR     = 

OBJECT_NAME    = SDA_1676
OBJECT_ID      = 2025-230N
CENTER_NAME    = EARTH
REF_FRAME      = TEME
TIME_SYSTEM    = UTC
MEAN_ELEMENT_THEORY = SGP/SGP4

EPOCH          = 2025-11-12T19:51:43.307712
MEAN_MOTION    = 13.84577370
ECCENTRICITY   = .0002442
INCLINATION    = 81.3032
RA_OF_ASC_NODE = 52.3660
ARG_OF_PERICENTER = 38.6368
MEAN_ANOMALY   = 321.4964

EPHEMERIS_TYPE = 0
CLASSIFICATION_TYPE = U
NORAD_CAT_ID   = 65986
ELEMENT_SET_NO = 999
REV_AT_EPOCH   = 386
BSTAR          = .31105E-3
MEAN_MOTION_DOT = .361E-5
MEAN_MOTION_DDOT = 0

CCSDS_OMM_VERS = 2.0
CREATION_DATE  = 
ORIGINATOR     = 

OBJECT_NAME    = SDA_1677
OBJECT_ID      = 2025-230P
CENTER_NAME    = EARTH
REF_FRAME      = TEME
TIME_SYSTEM    = UTC
MEAN_ELEMENT_THEORY = SGP/SGP4

EPOCH          = 2025-11-12T19:49:14.431872
MEAN_MOTION    = 13.84663092
ECCENTRICITY   = .0002799
INCLINATION    = 81.3005
RA_OF_ASC_NODE = 52.3570
ARG_OF_PERICENTER = 43.3891
MEAN_ANOMALY   = 316.7485

EPHEMERIS_TYPE = 0
CLASSIFICATION_TYPE = U
NORAD_CAT_ID   = 65987
ELEMENT_SET_NO = 999
REV_AT_EPOCH   = 386
BSTAR          = .3023E-3
MEAN_MOTION_DOT = .351E-5
MEAN_MOTION_DDOT = 0

CCSDS_OMM_VERS = 2.0
CREATION_DATE  = 
ORIGINATOR     = 

OBJECT_NAME    = SDA_1678
OBJECT_ID      = 2025-230Q
CENTER_NAME    = EARTH
REF_FRAME      = TEME
TIME_SYSTEM    = UTC
MEAN_ELEMENT_THEORY = SGP/SGP4

EPOCH          = 2025-11-12T19:24:42.369408
MEAN_MOTION    = 13.85512732
ECCENTRICITY   = .0004979
INCLINATION    = 81.3037
RA_OF_ASC_NODE = 52.3462
ARG_OF_PERICENTER = 92.4100
MEAN_ANOMALY   = 267.7628

EPHEMERIS_TYPE = 0
CLASSIFICATION_TYPE = U
NORAD_CAT_ID   = 65988
ELEMENT_SET_NO = 999
REV_AT_EPOCH   = 386
BSTAR          = .32701E-3
MEAN_MOTION_DOT = .385E-5
MEAN_MOTION_DDOT = 0

CCSDS_OMM_VERS = 2.0
CREATION_DATE  = 
ORIGINATOR     = 

OBJECT_NAME    = SDA_1679
OBJECT_ID      = 2025-230R
CENTER_NAME    = EARTH
REF_FRAME      = TEME
TIME_SYSTEM    = UTC
MEAN_ELEMENT_THEORY = SGP/SGP4

EPOCH          = 2025-11-12T19:30:31.153248
MEAN_MOTION    = 13.85311193
ECCENTRICITY   = .0005093
INCLINATION    = 81.3035
RA_OF_ASC_NODE = 52.3517
ARG_OF_PERICENTER = 81.1700
MEAN_ANOMALY   = 279.0034

EPHEMERIS_TYPE = 0
CLASSIFICATION_TYPE = U
NORAD_CAT_ID   = 65989
ELEMENT_SET_NO = 999
REV_AT_EPOCH   = 386
BSTAR          = .28261E-3
MEAN_MOTION_DOT = .333E-5
MEAN_MOTION_DDOT = 0

CCSDS_OMM_VERS = 2.0
CREATION_DATE  = 
ORIGINATOR     = 

OBJECT_NAME    = SDA_1680
OBJECT_ID      = 2025-230S
CENTER_NAME    = EARTH
REF_FRAME      = TEME
TIME_SYSTEM    = UTC
MEAN_ELEMENT_THEORY = SGP/SGP4

EPOCH          = 2025-11-12T19:34:01.602048
MEAN_MOTION    = 13.85190094
ECCENTRICITY   = .0004874
INCLINATION    = 81.3026
RA_OF_ASC_NODE = 52.3486
ARG_OF_PERICENTER = 74.1276
MEAN_ANOMALY   = 286.0418

EPHEMERIS_TYPE = 0
CLASSIFICATION_TYPE = U
NORAD_CAT_ID   = 65990
ELEMENT_SET_NO = 999
REV_AT_EPOCH   = 386
BSTAR          = .2946E-3
MEAN_MOTION_DOT = .346E-5
MEAN_MOTION_DDOT = 0

CCSDS_OMM_VERS = 2.0
CREATION_DATE  = 
ORIGINATOR     = 

OBJECT_NAME    = SDA_1681
OBJECT_ID      = 2025-230T
CENTER_NAME    = EARTH
REF_FRAME      = TEME
TIME_SYSTEM    = UTC
MEAN_ELEMENT_THEORY = SGP/SGP4

EPOCH          = 2025-11-12T19:31:43.055328
MEAN_MOTION    = 13.85270164
ECCENTRICITY   = .0004988
INCLINATION    = 81.3025
RA_OF_ASC_NODE = 52.3448
ARG_OF_PERICENTER = 78.6398
MEAN_ANOMALY   = 281.5320

EPHEMERIS_TYPE = 0
CLASSIFICATION_TYPE = U
NORAD_CAT_ID   = 65991
ELEMENT_SET_NO = 999
REV_AT_EPOCH   = 386
BSTAR          = .33252E-3
MEAN_MOTION_DOT = .389E-5
MEAN_MOTION_DDOT = 0

CCSDS_OMM_VERS = 2.0
CREATION_DATE  = 
ORIGINATOR     = 

OBJECT_NAME    = SDA_1682
OBJECT_ID      = 2025-230U
CENTER_NAME    = EARTH
REF_FRAME      = TEME
TIME_SYSTEM    = UTC
MEAN_ELEMENT_THEORY = SGP/SGP4

EPOCH          = 2025-11-12T19:44:17.094048
MEAN_MOTION    = 13.84834404
ECCENTRICITY   = .0003443
INCLINATION    = 81.3052
RA_OF_ASC_NODE = 52.3657
ARG_OF_PERICENTER = 53.2709
MEAN_ANOMALY   = 306.8764

EPHEMERIS_TYPE = 0
CLASSIFICATION_TYPE = U
NORAD_CAT_ID   = 65992
ELEMENT_SET_NO = 999
REV_AT_EPOCH   = 386
BSTAR          = .30442E-3
MEAN_MOTION_DOT = .355E-5
MEAN_MOTION_DDOT = 0

CCSDS_OMM_VERS = 2.0
CREATION_DATE  = 
ORIGINATOR     = 

OBJECT_NAME    = SDA_1683
OBJECT_ID      = 2025-230V
CENTER_NAME    = EARTH
REF_FRAME      = TEME
TIME_SYSTEM    = UTC
MEAN_ELEMENT_THEORY = SGP/SGP4

EPOCH          = 2025-11-12T19:41:57.471648
MEAN_MOTION    = 13.84915545
ECCENTRICITY   = .0003787
INCLINATION    = 81.3042
RA_OF_ASC_NODE = 52.3604
ARG_OF_PERICENTER = 55.8407
MEAN_ANOMALY   = 304.3109

EPHEMERIS_TYPE = 0
CLASSIFICATION_TYPE = U
NORAD_CAT_ID   = 65993
ELEMENT_SET_NO = 999
REV_AT_EPOCH   = 386
BSTAR          = .31465E-3
MEAN_MOTION_DOT = .367E-5
MEAN_MOTION_DDOT = 0

CCSDS_OMM_VERS = 2.0
CREATION_DATE  = 
ORIGINATOR     = 

OBJECT_NAME    = SDA_1684
OBJECT_ID      = 2025-230W
CENTER_NAME    = EARTH
REF_FRAME      = TEME
TIME_SYSTEM    = UTC
MEAN_ELEMENT_THEORY = SGP/SGP4

EPOCH          = 2025-11-12T19:46:08.429952
MEAN_MOTION    = 13.84770353
ECCENTRICITY   = .0003539
INCLINATION    = 81.3026
RA_OF_ASC_NODE = 52.3596
ARG_OF_PERICENTER = 42.8920
MEAN_ANOMALY   = 317.2513

EPHEMERIS_TYPE = 0
CLASSIFICATION_TYPE = U
NORAD_CAT_ID   = 65994
ELEMENT_SET_NO = 999
REV_AT_EPOCH   = 386
BSTAR          = .30394E-3
MEAN_MOTION_DOT = .354E-5
MEAN_MOTION_DDOT = 0

