SDA_1673                
1 65983U 25230K   25316.80793874  .00000387  00000+0  32847-3 0  9990
2 65983  81.3034  52.3431 0005084  94.4655 265.7083 13.85557499  3864
SDA_1674                
1 65984U 25230L   25316.81110653  .00000364  00000+0  30945-3 0  9992
2 65984  81.3025  52.3415 0004889  86.0860 274.0856 13.85398787  3868
SDA_1675                
1 65985U 25230M   25316.82456664  .00000348  00000+0  29881-3 0  9998
2 65985  81.3002  52.3536 0003202  47.2600 312.8825 13.84727408  3869
SDA_1676                
1 65986U 25230N   25316.82758458  .00000361  00000+0  31105-3 0  9992
2 65986  81.3032  52.3660 0002442  38.6368 321.4964 13.84577370  3862
SDA_1677                
1 65987U 25230P   25316.82586148  .00000351  00000+0  30230-3 0  9995
2 65987  81.3005  52.3570 0002799  43.3891 316.7485 13.84663092  3864
SDA_1678                
1 65988U 25230Q   25316.80882372  .00000385  00000+0  32701-3 0  9994
2 65988  81.3037  52.3462 0004979  92.4100 267.7628 13.85512732  3869
SDA_1679                
1 65989U 25230R   25316.81286057  .00000333  00000+0  28261-3 0  9993
2 65989  81.3035  52.3517 0005093  81.1700 279.0034 13.85311193  3863
SDA_1680                
1 65990U 25230S   25316.81529632  .00000346  00000+0  29460-3 0  9990
2 65990  81.3026  52.3486 0004874  74.1276 286.0418 13.85190094  3865
SDA_1681                
1 65991U 25230T   25316.81369277  .00000389  00000+0  33252-3 0  9999
2 65991  81.3025  52.3448 0004988  78.6398 281.5320 13.85270164  3862
SDA_1682                
1 65992U 25230U   25316.82242007  .00000355  00000+0  30442-3 0  9993
2 65992  81.3052  52.3657 0003443  53.2709 306.8764 13.84834404  3860
SDA_1683                
1 65993U 25230V   25316.82080407  .00000367  00000+0  31465-3 0  9997
2 65993  81.3042  52.3604 0003787  55.8407 304.3109 13.84915545  3868
SDA_1684                
1 65994U 25230W   25316.82370868  .00000354  00000+0  30394-3 0  9997
2 65994  81.3026  52.3596 0003539  42.8920 317.2513 13.84770353  3860
